GLOBALSTAR M023 [+]     
1 25621U 99004A   24072.57767065 -.00000067  00000+0  20413-3 0  9992
2 25621  52.0133  18.9906 0010094 183.7710 347.5960 12.62449040157421
GLOBALSTAR M040 [-]     
1 25622U 99004B   24073.56233307 -.00000077  00000+0  14968-3 0  9999
2 25622  51.9942  19.4714 0001133  89.0627  82.4965 12.61968798157391
GLOBALSTAR M036 [-]     
1 25623U 99004C   24072.61204206 -.00000028  00000+0  79846-3 0  9993
2 25623  51.9999  16.8897 0011232 247.0175 284.4625 11.86562554124186
GLOBALSTAR M038 [-]     
1 25624U 99004D   24073.16483413 -.00000056  00000+0  32316-3 0  9996
2 25624  51.9989 319.2282 0001850 149.4635  17.8121 12.32494531145481
GLOBALSTAR M022 [-]     
1 25649U 99012A   24073.24491042 -.00000051  00000+0  42918-3 0  9992
2 25649  52.0026 103.9291 0002293 339.2734  99.0233 12.02478686121009
GLOBALSTAR M041 [-]     
1 25650U 99012B   24072.89410834 -.00000097  00000+0 -14829-3 0  9995
2 25650  52.0047 332.2724 0002735 109.3167 250.7965 11.96656376123050
GLOBALSTAR M046 [-]     
1 25651U 99012C   24073.24171971 -.00000166  00000+0 -85514-3 0  9998
2 25651  52.0051  70.8956 0002330  56.7495 316.5112 12.09386450128247
GLOBALSTAR M037 [+]     
1 25652U 99012D   24073.13350309 -.00000005  00000+0  55206-3 0  9997
2 25652  51.9994 148.0949 0001674 227.3091 139.3074 12.62398719153099
